NORAD_CAT_ID,OBJECT_NAME,OBJECT_TYPE,EPOCH,MEAN_MOTION,ECCENTRICITY,INCLINATION,RA_OF_ASC_NODE,ARG_OF_PERICENTER,MEAN_ANOMALY,BSTAR,MEAN_MOTION_DOT,MEAN_MOTION_DDOT,TLE_LINE0,TLE_LINE1,TLE_LINE2,SEMIMAJOR_AXIS,PERIOD,APOGEE,PERIGEE,DECAYED
52623.0,STARLINK-3986,PAYLOAD,2023-09-28 10:00:05,15.08834233,0.0001701,53.2191,319.1782,99.1285,260.99,-3.779e-06,-3.48e-06,0.0,0 STARLINK-3986,1 52623U 22052AB  23271.41672574 -.00000348  00000-0 -37790-5 0  9998,2 52623  53.2191 319.1782 0001701  99.1285 260.9900 15.08834233 76517,6917.898,95.438,540.94,538.586,0.0
52623.0,STARLINK-3986,PAYLOAD,2023-09-28 13:10:51,15.08835372,0.0001519,53.217,318.5828,97.4649,262.6515,2.8017e-05,1.58e-06,0.0,0 STARLINK-3986,1 52623U 22052AB  23271.54920432  .00000158  00000-0  28017-4 0  9999,2 52623  53.2170 318.5828 0001519  97.4649 262.6515 15.08835372 76156,6917.895,95.438,540.81,538.709,0.0
52623.0,STARLINK-3986,PAYLOAD,2023-09-29 09:50:52,15.0883998,0.0001561,53.2172,314.7179,99.9722,260.1447,2.8934e-05,1.73e-06,0.0,0 STARLINK-3986,1 52623U 22052AB  23272.41032427  .00000173  00000-0  28934-4 0  9999,2 52623  53.2172 314.7179 0001561  99.9722 260.1447 15.08839980 76281,6917.88,95.438,540.825,538.666,0.0
52623.0,STARLINK-3986,PAYLOAD,2023-09-30 09:41:38,15.08856215,0.0001522,53.2168,310.2598,97.1836,262.9329,0.00037318,5.659e-05,0.0,0 STARLINK-3986,1 52623U 22052AB  23273.40391422  .00005659  00000-0  37318-3 0  9991,2 52623  53.2168 310.2598 0001522  97.1836 262.9329 15.08856215 76813,6917.831,95.437,540.749,538.643,0.0
52623.0,STARLINK-3986,PAYLOAD,2023-10-01 11:07:48,15.08847325,0.0001587,53.2162,305.5017,81.7408,278.3764,0.0001518,2.129e-05,0.0,0 STARLINK-3986,1 52623U 22052AB  23274.46375556  .00002129  00000-0  15180-3 0  9990,2 52623  53.2162 305.5017 0001587  81.7408 278.3764 15.08847325 76978,6917.858,95.437,540.821,538.625,0.0
52623.0,STARLINK-3986,PAYLOAD,2023-10-02 03:01:40,15.08824895,0.0001598,53.2156,302.5261,82.3981,277.7193,0.00049846,7.651e-05,0.0,0 STARLINK-3986,1 52623U 22052AB  23275.12616574  .00007651  00000-0  49846-3 0  9993,2 52623  53.2156 302.5261 0001598  82.3981 277.7193 15.08824895 77072,6917.927,95.439,540.897,538.686,0.0
52623.0,STARLINK-3986,PAYLOAD,2023-10-02 09:23:13,15.08833963,0.0001743,53.2165,301.3371,80.4644,279.6545,0.00046028,7.044e-05,0.0,0 STARLINK-3986,1 52623U 22052AB  23275.39112769  .00007044  00000-0  46028-3 0  9994,2 52623  53.2165 301.3371 0001743  80.4644 279.6545 15.08833963 76738,6917.899,95.438,540.97,538.558,0.0
52623.0,STARLINK-3986,PAYLOAD,2023-10-03 09:14:00,15.08852441,0.0001619,53.2155,296.8763,92.0288,268.0889,0.00068949,0.00010706,0.0,0 STARLINK-3986,1 52623U 22052AB  23276.38472526  .00010706  00000-0  68949-3 0  9999,2 52623  53.2155 296.8763 0001619  92.0288 268.0889 15.08852441 77269,6917.842,95.437,540.827,538.587,0.0
52623.0,STARLINK-3986,PAYLOAD,2023-10-04 01:07:51,15.08844547,0.0001711,53.2158,293.9028,89.7438,270.3751,0.00038457,5.838e-05,0.0,0 STARLINK-3986,1 52623U 22052AB  23277.04712825  .00005838  00000-0  38457-3 0  9993,2 52623  53.2158 293.9028 0001711  89.7438 270.3751 15.08844547 77360,6917.866,95.437,540.915,538.548,0.0
52623.0,STARLINK-3986,PAYLOAD,2023-10-04 07:29:24,15.08844399,0.0001667,53.2158,292.7129,94.0911,266.0272,0.00041119,6.263e-05,0.0,0 STARLINK-3986,1 52623U 22052AB  23277.31208823  .00006263  00000-0  41119-3 0  9993,2 52623  53.2158 292.7129 0001667  94.0911 266.0272 15.08844399 77022,6917.867,95.437,540.885,538.579,0.0
52623.0,STARLINK-3986,PAYLOAD,2023-10-04 18:37:06,15.08842661,0.0001689,53.2155,290.631,88.8427,271.2759,0.00039777,6.049e-05,0.0,0 STARLINK-3986,1 52623U 22052AB  23277.77576955  .00006049  00000-0  39777-3 0  9996,2 52623  53.2155 290.6310 0001689  88.8427 271.2759 15.08842661 77472,6917.872,95.437,540.906,538.569,0.0
52623.0,STARLINK-3986,PAYLOAD,2023-10-05 07:20:11,15.08850554,0.0001762,53.2166,288.2527,90.8626,269.2568,0.00037689,5.717e-05,0.0,0 STARLINK-3986,1 52623U 22052AB  23278.30568717  .00005717  00000-0  37689-3 0  9994,2 52623  53.2166 288.2527 0001762  90.8626 269.2568 15.08850554 77175,6917.848,95.437,540.932,538.494,0.0
52623.0,STARLINK-3986,PAYLOAD,2023-10-06 00:49:26,15.08844133,0.0001677,53.2172,284.983,89.3499,270.7686,0.00021349,3.112e-05,0.0,0 STARLINK-3986,1 52623U 22052AB  23279.03432993  .00003112  00000-0  21349-3 0  9994,2 52623  53.2172 284.9830 0001677  89.3499 270.7686 15.08844133 77666,6917.868,95.437,540.893,538.573,0.0
52623.0,STARLINK-3986,PAYLOAD,2023-10-06 05:35:35,15.08844128,0.0001769,53.2166,284.09,92.3812,267.7383,0.00020854,3.033e-05,0.0,0 STARLINK-3986,1 52623U 22052AB  23279.23304983  .00003033  00000-0  20854-3 0  9995,2 52623  53.2166 284.0900 0001769  92.3812 267.7383 15.08844128 77319,6917.868,95.437,540.957,538.509,0.0
52623.0,STARLINK-3986,PAYLOAD,2023-10-07 00:40:13,15.08839274,0.0001723,53.2163,280.5237,80.8268,279.2919,0.00011751,1.583e-05,0.0,0 STARLINK-3986,1 52623U 22052AB  23280.02793319  .00001583  00000-0  11751-3 0  9993,2 52623  53.2163 280.5237 0001723  80.8268 279.2919 15.08839274 77811,6917.883,95.438,540.94,538.556,0.0
52623.0,STARLINK-3986,PAYLOAD,2023-10-07 10:12:32,15.0884382,0.0001634,53.2169,278.738,89.2279,270.89,0.00017395,2.482e-05,0.0,0 STARLINK-3986,1 52623U 22052AB  23280.42537130  .00002482  00000-0  17395-3 0  9993,2 52623  53.2169 278.7380 0001634  89.2279 270.8900 15.08843820 77494,6917.869,95.437,540.864,538.603,0.0
52623.0,STARLINK-3986,PAYLOAD,2023-10-07 16:34:04,15.08840136,0.000146,53.2153,277.5464,81.3997,278.716,0.00012773,1.745e-05,0.0,0 STARLINK-3986,1 52623U 22052AB  23280.69033250  .00001745  00000-0  12773-3 0  9992,2 52623  53.2153 277.5464 0001460  81.3997 278.7160 15.08840136 77531,6917.88,95.438,540.755,538.735,0.0
52623.0,STARLINK-3986,PAYLOAD,2023-10-08 00:31:00,15.08836085,0.0001448,53.2165,276.0617,90.2782,269.8376,7.6246e-05,9.26e-06,0.0,0 STARLINK-3986,1 52623U 22052AB  23281.02153549  .00000926  00000-0  76246-4 0  9990,2 52623  53.2165 276.0617 0001448  90.2782 269.8376 15.08836085 77960,6917.892,95.438,540.759,538.756,0.0
52623.0,STARLINK-3986,PAYLOAD,2023-10-08 10:03:18,15.08853111,0.0001637,53.2165,274.2776,95.1753,264.9426,0.00037409,5.673e-05,0.0,0 STARLINK-3986,1 52623U 22052AB  23281.41896902  .00005673  00000-0  37409-3 0  9991,2 52623  53.2165 274.2776 0001637  95.1753 264.9426 15.08853111 78027,6917.84,95.437,540.838,538.573,0.0
52623.0,STARLINK-3986,PAYLOAD,2023-10-08 16:24:51,15.08844457,0.0001448,53.2152,273.0852,79.6146,280.501,0.00018509,2.659e-05,0.0,0 STARLINK-3986,1 52623U 22052AB  23281.68393157  .00002659  00000-0  18509-3 0  9995,2 52623  53.2152 273.0852 0001448  79.6146 280.5010 15.08844457 78068,6917.867,95.437,540.733,538.73,0.0
52623.0,STARLINK-3986,PAYLOAD,2023-10-09 09:54:06,15.08849816,0.000171,53.2169,269.8172,91.7197,268.3991,0.0002477,3.657e-05,0.0,0 STARLINK-3986,1 52623U 22052AB  23282.41257064  .00003657  00000-0  24770-3 0  9999,2 52623  53.2169 269.8172 0001710  91.7197 268.3991 15.08849816 77792,6917.85,95.437,540.898,538.532,0.0
52623.0,STARLINK-3986,PAYLOAD,2023-10-10 08:09:30,15.08846083,0.0001582,53.2164,265.6501,96.3759,263.7413,0.0001784,2.553e-05,0.0,0 STARLINK-3986,1 52623U 22052AB  23283.33993135  .00002553  00000-0  17840-3 0  9991,2 52623  53.2164 265.6501 0001582  96.3759 263.7413 15.08846083 78319,6917.862,95.437,540.821,538.632,0.0
52623.0,STARLINK-3986,PAYLOAD,2023-10-10 16:06:25,15.08839016,0.0001415,53.2165,264.1662,102.7745,257.3405,2.366e-05,8.9e-07,0.0,0 STARLINK-3986,1 52623U 22052AB  23283.67113212  .00000089  00000-0  23660-4 0  9998,2 52623  53.2165 264.1662 0001415 102.7745 257.3405 15.08839016 77984,6917.883,95.438,540.727,538.77,0.0
52623.0,STARLINK-3986,PAYLOAD,2023-10-11 03:14:08,15.08835077,0.0001492,53.2162,262.0817,106.0579,254.0578,8.1717e-05,1.013e-05,0.0,0 STARLINK-3986,1 52623U 22052AB  23284.13481604  .00001013  00000-0  81717-4 0  9998,2 52623  53.2162 262.0817 0001492 106.0579 254.0578 15.08835077 78436,6917.895,95.438,540.793,538.728,0.0
52623.0,STARLINK-3986,PAYLOAD,2023-10-11 08:00:17,15.08840404,0.0001354,53.2171,261.1907,100.9093,259.2052,0.00013904,1.926e-05,0.0,0 STARLINK-3986,1 52623U 22052AB  23284.33353461  .00001926  00000-0  13904-3 0  9994,2 52623  53.2171 261.1907 0001354 100.9093 259.2052 15.08840404 78082,6917.879,95.438,540.681,538.807,0.0
52623.0,STARLINK-3986,PAYLOAD,2023-10-12 04:40:18,15.08848535,0.0001473,53.2163,257.3245,101.3547,258.761,0.00027659,4.118e-05,0.0,0 STARLINK-3986,1 52623U 22052AB  23285.19465579  .00004118  00000-0  27659-3 0  9991,2 52623  53.2163 257.3245 0001473 101.3547 258.7610 15.08848535 78599,6917.854,95.437,540.738,538.7,0.0
52623.0,STARLINK-3986,PAYLOAD,2023-10-12 07:51:04,15.08851091,0.0001498,53.2164,256.7297,101.3226,258.7935,0.00033274,5.013e-05,0.0,0 STARLINK-3986,1 52623U 22052AB  23285.32713480  .00005013  00000-0  33274-3 0  9998,2 52623  53.2164 256.7297 0001498 101.3226 258.7935 15.08851091 78233,6917.846,95.437,540.748,538.675,0.0
52623.0,STARLINK-3986,PAYLOAD,2023-10-12 15:48:00,15.08843897,0.0001483,53.2169,255.2442,95.0973,265.0188,0.00021412,3.122e-05,0.0,0 STARLINK-3986,1 52623U 22052AB  23285.65833867  .00003122  00000-0  21412-3 0  9996,2 52623  53.2169 255.2442 0001483  95.0973 265.0188 15.08843897 78669,6917.868,95.437,540.759,538.708,0.0
52623.0,STARLINK-3986,PAYLOAD,2023-10-13 07:41:51,15.08848011,0.0001619,53.2173,252.2697,98.4318,261.6857,0.00023884,3.516e-05,0.0,0 STARLINK-3986,1 52623U 22052AB  23286.32073741  .00003516  00000-0  23884-3 0  9990,2 52623  53.2173 252.2697 0001619  98.4318 261.6857 15.08848011 78381,6917.856,95.437,540.841,538.601,0.0
52623.0,STARLINK-3986,PAYLOAD,2023-10-14 02:46:29,15.08851708,0.0001666,53.2177,248.7004,98.8495,261.2686,0.00028712,4.286e-05,0.0,0 STARLINK-3986,1 52623U 22052AB  23287.11561469  .00004286  00000-0  28712-3 0  9997,2 52623  53.2177 248.7004 0001666  98.8495 261.2686 15.08851708 78887,6917.845,95.437,540.862,538.557,0.0
